{"type": "FeatureCollection", "features": [ {"type": "Feature", "properties": {"norad_id": 29769, "name": "FENGYUN 1C DEB", "group": "fengyun-1c-debris", "lat": -44.63769001817537, "lon": 52.323557662771975, "alt_km": 921.8155401903732, "timestamp": "2025-12-11T22:43:47.539882+00:00", "meta": {"OBJECT_NAME": "FENGYUN 1C DEB", "OBJECT_ID": "1999-025BK", "EPOCH": "2025-12-10T14:40:10.559712", "MEAN_MOTION": 14.13511382, "ECCENTRICITY": 0.0093919, "INCLINATION": 99.1049, "RA_OF_ASC_NODE": 41.8532, "ARG_OF_PERICENTER": 136.3981, "MEAN_ANOMALY": 224.4662, "EPHEMERIS_TYPE": 0, "CLASSIFICATION_TYPE": "U", "NORAD_CAT_ID": 29769, "ELEMENT_SET_NO": 999, "REV_AT_EPOCH": 96651, "BSTAR": 0.0020798, "MEAN_MOTION_DOT": 4.04e-05, "MEAN_MOTION_DDOT": 0}, "tle": {"line1": "1 29769U 99025BK  25344.61123333  .00004040  00000+0  20798-2 0  9993", "line2": "2 29769  99.1049  41.8532 0093919 136.3981 224.4662 14.13511382966514"}}, "geometry": {"type": "Point", "coordinates": [52.323557662771975, -44.63769001817537]}}, {"type": "Feature", "properties": {"norad_id": 29770, "name": "FENGYUN 1C DEB", "group": "fengyun-1c-debris", "lat": 78.516035903985, "lon": 11.472358611673435, "alt_km": 861.9495349615272, "timestamp": "2025-12-11T22:43:47.539893+00:00", "meta": {"OBJECT_NAME": "FENGYUN 1C DEB", "OBJECT_ID": "1999-025BL", "EPOCH": "2025-12-11T03:52:45.424704", "MEAN_MOTION": 14.20099423, "ECCENTRICITY": 0.0062648, "INCLINATION": 98.8462, "RA_OF_ASC_NODE": 60.7324, "ARG_OF_PERICENTER": 275.799, "MEAN_ANOMALY": 113.5196, "EPHEMERIS_TYPE": 0, "CLASSIFICATION_TYPE": "U", "NORAD_CAT_ID": 29770, "ELEMENT_SET_NO": 999, "REV_AT_EPOCH": 97064, "BSTAR": 0.0022117114, "MEAN_MOTION_DOT": 4.764e-05, "MEAN_MOTION_DDOT": 0}, "tle": {"line1": "1 29770U 99025BL  25345.16163686  .00004764  00000+0  22117-2 0  9991", "line2": "2 29770  98.8462  60.7324 0062648 275.7990 113.5196 14.20099423970647"}}, "geometry": {"type": "Point", "coordinates": [11.472358611673435, 78.516035903985]}}, {"type": "Feature", "properties": {"norad_id": 29772, "name": "FENGYUN 1C DEB", "group": "fengyun-1c-debris", "lat": 50.88009569500893, "lon": -175.24504858667908, "alt_km": 925.956324644937, "timestamp": "2025-12-11T22:43:47.539905+00:00", "meta": {"OBJECT_NAME": "FENGYUN 1C DEB", "OBJECT_ID": "1999-025BN", "EPOCH": "2025-12-10T07:59:03.938208", "MEAN_MOTION": 14.0319606, "ECCENTRICITY": 0.0138223, "INCLINATION": 98.3886, "RA_OF_ASC_NODE": 193.7194, "ARG_OF_PERICENTER": 297.041, "MEAN_ANOMALY": 242.7077, "EPHEMERIS_TYPE": 0, "CLASSIFICATION_TYPE": "U", "NORAD_CAT_ID": 29772, "ELEMENT_SET_NO": 999, "REV_AT_EPOCH": 96221, "BSTAR": 0.0016568, "MEAN_MOTION_DOT": 2.769e-05, "MEAN_MOTION_DDOT": 0}, "tle": {"line1": "1 29772U 99025BN  25344.33268447  .00002769  00000+0  16568-2 0  9998", "line2": "2 29772  98.3886 193.7194 0138223 297.0410 242.7077 14.03196060962216"}}, "geometry": {"type": "Point", "coordinates": [-175.24504858667908, 50.88009569500893]}}, {"type": "Feature", "properties": {"norad_id": 29773, "name": "FENGYUN 1C DEB", "group": "fengyun-1c-debris", "lat": 28.120060979099343, "lon": 134.67517689976862, "alt_km": 801.656614381739, "timestamp": "2025-12-11T22:43:47.539915+00:00", "meta": {"OBJECT_NAME": "FENGYUN 1C DEB", "OBJECT_ID": "1999-025BP", "EPOCH": "2025-12-11T09:23:39.469920", "MEAN_MOTION": 14.27566872, "ECCENTRICITY": 0.00463695, "INCLINATION": 98.9874, "RA_OF_ASC_NODE": 138.9556, "ARG_OF_PERICENTER": 294.638, "MEAN_ANOMALY": 119.4251, "EPHEMERIS_TYPE": 0, "CLASSIFICATION_TYPE": "U", "NORAD_CAT_ID": 29773, "ELEMENT_SET_NO": 999, "REV_AT_EPOCH": 98178, "BSTAR": 0.000608872, "MEAN_MOTION_DOT": 1.468e-05, "MEAN_MOTION_DDOT": 0}, "tle": {"line1": "1 29773U 99025BP  25345.39142905  .00001468  00000+0  60887-3 0  9995", "line2": "2 29773  98.9874 138.9556 0046369 294.6380 119.4251 14.27566872981786"}}, "geometry": {"type": "Point", "coordinates": [134.67517689976862, 28.120060979099343]}}, {"type": "Feature", "properties": {"norad_id": 29774, "name": "FENGYUN 1C DEB", "group": "fengyun-1c-debris", "lat": 7.788544027370082, "lon": -75.00059696748009, "alt_km": 834.7663664632801, "timestamp": "2025-12-11T22:43:47.539925+00:00", "meta": {"OBJECT_NAME": "FENGYUN 1C DEB", "OBJECT_ID": "1999-025BQ", "EPOCH": "2025-12-11T09:44:10.919616", "MEAN_MOTION": 14.22731017, "ECCENTRICITY": 0.00510547, "INCLINATION": 99.076, "RA_OF_ASC_NODE": 285.6947, "ARG_OF_PERICENTER": 127.026, "MEAN_ANOMALY": 350.1059, "EPHEMERIS_TYPE": 0, "CLASSIFICATION_TYPE": "U", "NORAD_CAT_ID": 29774, "ELEMENT_SET_NO": 999, "REV_AT_EPOCH": 98056, "BSTAR": 0.00028428, "MEAN_MOTION_DOT": 5.99e-06, "MEAN_MOTION_DDOT": 0}, "tle": {"line1": "1 29774U 99025BQ  25345.40568194  .00000599  00000+0  28428-3 0  9999", "line2": "2 29774  99.0760 285.6947 0051054 127.0260 350.1059 14.22731017980565"}}, "geometry": {"type": "Point", "coordinates": [-75.00059696748009, 7.788544027370082]}}, {"type": "Feature", "properties": {"norad_id": 29776, "name": "FENGYUN 1C DEB", "group": "fengyun-1c-debris", "lat": -60.62125036454256, "lon": 28.639854815739056, "alt_km": 859.1254528796499, "timestamp": "2025-12-11T22:43:47.539936+00:00", "meta": {"OBJECT_NAME": "FENGYUN 1C DEB", "OBJECT_ID": "1999-025BS", "EPOCH": "2025-12-11T13:32:20.622912", "MEAN_MOTION": 14.07773868, "ECCENTRICITY": 0.00228026, "INCLINATION": 98.7713, "RA_OF_ASC_NODE": 12.3512, "ARG_OF_PERICENTER": 274.3251, "MEAN_ANOMALY": 244.0659, "EPHEMERIS_TYPE": 0, "CLASSIFICATION_TYPE": "U", "NORAD_CAT_ID": 29776, "ELEMENT_SET_NO": 999, "REV_AT_EPOCH": 97063, "BSTAR": 0.00018626568, "MEAN_MOTION_DOT": 2.73e-06, "MEAN_MOTION_DDOT": 0}, "tle": {"line1": "1 29776U 99025BS  25345.56412758  .00000273  00000+0  18627-3 0  9991", "line2": "2 29776  98.7713  12.3512 0022802 274.3251 244.0659 14.07773868970636"}}, "geometry": {"type": "Point", "coordinates": [28.639854815739056, -60.62125036454256]}}, {"type": "Feature", "properties": {"norad_id": 29777, "name": "FENGYUN 1C DEB", "group": "fengyun-1c-debris", "lat": 28.07028901341299, "lon": 37.803978617489676, "alt_km": 987.4821934421589, "timestamp": "2025-12-11T22:43:47.539946+00:00", "meta": {"OBJECT_NAME": "FENGYUN 1C DEB", "OBJECT_ID": "1999-025BT", "EPOCH": "2025-12-11T10:35:43.769184", "MEAN_MOTION": 13.92103814, "ECCENTRICITY": 0.00926787, "INCLINATION": 99.2837, "RA_OF_ASC_NODE": 42.3019, "ARG_OF_PERICENTER": 213.2706, "MEAN_ANOMALY": 162.7593, "EPHEMERIS_TYPE": 0, "CLASSIFICATION_TYPE": "U", "NORAD_CAT_ID": 29777, "ELEMENT_SET_NO": 999, "REV_AT_EPOCH": 96023, "BSTAR": 0.00027425881, "MEAN_MOTION_DOT": 3.18e-06, "MEAN_MOTION_DDOT": 0}, "tle": {"line1": "1 29777U 99025BT  25345.44147881  .00000318  00000+0  27426-3 0  9998", "line2": "2 29777  99.2837  42.3019 0092678 213.2706 162.7593 13.92103814960239"}}, "geometry": {"type": "Point", "coordinates": [37.803978617489676, 28.07028901341299]}}, {"type": "Feature", "properties": {"norad_id": 29779, "name": "FENGYUN 1C DEB", "group": "fengyun-1c-debris", "lat": -69.73169233604303, "lon": 21.63523801308673, "alt_km": 878.9703529484705, "timestamp": "2025-12-11T22:43:47.539957+00:00", "meta": {"OBJECT_NAME": "FENGYUN 1C DEB", "OBJECT_ID": "1999-025BV", "EPOCH": "2025-12-11T06:04:56.854848", "MEAN_MOTION": 14.13440852, "ECCENTRICITY": 0.00634412, "INCLINATION": 98.6773, "RA_OF_ASC_NODE": 356.5351, "ARG_OF_PERICENTER": 168.3803, "MEAN_ANOMALY": 191.8851, "EPHEMERIS_TYPE": 0, "CLASSIFICATION_TYPE": "U", "NORAD_CAT_ID": 29779, "ELEMENT_SET_NO": 999, "REV_AT_EPOCH": 97391, "BSTAR": 0.00035996643, "MEAN_MOTION_DOT": 6.47e-06, "MEAN_MOTION_DDOT": 0}, "tle": {"line1": "1 29779U 99025BV  25345.25343582  .00000647  00000+0  35997-3 0  9992", "line2": "2 29779  98.6773 356.5351 0063441 168.3803 191.8851 14.13440852973915"}}, "geometry": {"type": "Point", "coordinates": [21.63523801308673, -69.73169233604303]}}, {"type": "Feature", "properties": {"norad_id": 29780, "name": "FENGYUN 1C DEB", "group": "fengyun-1c-debris", "lat": 31.37105294876685, "lon": -98.8838286930152, "alt_km": 824.2315585316856, "timestamp": "2025-12-11T22:43:47.539967+00:00", "meta": {"OBJECT_NAME": "FENGYUN 1C DEB", "OBJECT_ID": "1999-025BW", "EPOCH": "2025-12-11T12:26:27.242304", "MEAN_MOTION": 14.21026805, "ECCENTRICITY": 0.00404522, "INCLINATION": 99.2771, "RA_OF_ASC_NODE": 266.3857, "ARG_OF_PERICENTER": 131.6452, "MEAN_ANOMALY": 228.8198, "EPHEMERIS_TYPE": 0, "CLASSIFICATION_TYPE": "U", "NORAD_CAT_ID": 29780, "ELEMENT_SET_NO": 999, "REV_AT_EPOCH": 97061, "BSTAR": 0.0026846588, "MEAN_MOTION_DOT": 5.827e-05, "MEAN_MOTION_DDOT": 0}, "tle": {"line1": "1 29780U 99025BW  25345.51837086  .00005827  00000+0  26847-2 0  9998", "line2": "2 29780  99.2771 266.3857 0040452 131.6452 228.8198 14.21026805970617"}}, "geometry": {"type": "Point", "coordinates": [-98.8838286930152, 31.37105294876685]}}, {"type": "Feature", "properties": {"norad_id": 29781, "name": "FENGYUN 1C DEB", "group": "fengyun-1c-debris", "lat": 27.36866881718486, "lon": -24.479242808603825, "alt_km": 918.4186908099937, "timestamp": "2025-12-11T22:43:47.539977+00:00", "meta": {"OBJECT_NAME": "FENGYUN 1C DEB", "OBJECT_ID": "1999-025BX", "EPOCH": "2025-12-11T11:24:32.716224", "MEAN_MOTION": 14.05222519, "ECCENTRICITY": 0.00718164, "INCLINATION": 98.8093, "RA_OF_ASC_NODE": 339.6669, "ARG_OF_PERICENTER": 176.6626, "MEAN_ANOMALY": 346.6911, "EPHEMERIS_TYPE": 0, "CLASSIFICATION_TYPE": "U", "NORAD_CAT_ID": 29781, "ELEMENT_SET_NO": 999, "REV_AT_EPOCH": 96625, "BSTAR": 0.00085764763, "MEAN_MOTION_DOT": 1.376e-05, "MEAN_MOTION_DDOT": 0}, "tle": {"line1": "1 29781U 99025BX  25345.47537866  .00001376  00000+0  85765-3 0  9997", "line2": "2 29781  98.8093 339.6669 0071816 176.6626 346.6911 14.05222519966254"}}, "geometry": {"type": "Point", "coordinates": [-24.479242808603825, 27.36866881718486]}}]}